[{"OBJECT_NAME":"STARLINK-34009","OBJECT_ID":"2025-093P","EPOCH":"2026-03-09T04:39:18.090432","MEAN_MOTION":15.27586801,"ECCENTRICITY":0.00013736,"INCLINATION":43.0018,"RA_OF_ASC_NODE":77.4691,"ARG_OF_PERICENTER":265.964,"MEAN_ANOMALY":94.1055,"EPHEMERIS_TYPE":0,"CLASSIFICATION_TYPE":"U","NORAD_CAT_ID":63849,"ELEMENT_SET_NO":999,"REV_AT_EPOCH":4793,"BSTAR":0.0014257229,"MEAN_MOTION_DOT":0.00039188,"MEAN_MOTION_DDOT":0},{"OBJECT_NAME":"CZ-4C DEB","OBJECT_ID":"2007-055C","EPOCH":"2026-03-09T22:46:15.652128","MEAN_MOTION":15.30523578,"ECCENTRICITY":0.00469709,"INCLINATION":97.8668,"RA_OF_ASC_NODE":247.2248,"ARG_OF_PERICENTER":277.363,"MEAN_ANOMALY":82.2273,"EPHEMERIS_TYPE":0,"CLASSIFICATION_TYPE":"U","NORAD_CAT_ID":35248,"ELEMENT_SET_NO":999,"REV_AT_EPOCH":97353,"BSTAR":0.0018809895,"MEAN_MOTION_DOT":0.000577,"MEAN_MOTION_DDOT":0}]
